1 45381U 20019X   22365.30196530  .00008692  00000-0  60126-3 0  9991
2 45381  53.0555 333.7710 0001742  57.7377 302.3780 15.06426542154503
1 45381U 20019X   22365.30196530  .00008692  00000-0  60126-3 0  9991
2 45381  53.0555 333.7710 0001742  57.7377 302.3780 15.06426542154503
1 45381U 20019X   22365.63369743  .00003547  00000-0  25681-3 0  9996
2 45381  53.0545 332.2812 0001879  58.0562 302.0609 15.06418569154552
1 45381U 20019X   22365.63369743  .00003547  00000-0  25681-3 0  9996
2 45381  53.0545 332.2812 0001879  58.0562 302.0609 15.06418569154552
1 45381U 20019X   23001.29716596  .00001426  00000-0  11460-3 0  9992
2 45381  53.0552 329.3032 0001275  49.7401 310.3699 15.06400188154650
1 45381U 20019X   23001.29716596  .00001426  00000-0  11460-3 0  9992
2 45381  53.0552 329.3032 0001275  49.7401 310.3699 15.06400188154650
1 45381U 20019X   23001.62890796 -.00002223  00000-0 -13044-3 0  9992
2 45381  53.0543 327.8135 0001685  59.7571 300.3585 15.06382302154707
1 45381U 20019X   23001.62890796 -.00002223  00000-0 -13044-3 0  9992
2 45381  53.0543 327.8135 0001685  59.7571 300.3585 15.06382302154707
1 45381U 20019X   23002.29239053  .00001246  00000-0  10263-3 0  9991
2 45381  53.0543 324.8345 0001855  64.9817 295.1364 15.06376511154809
1 45381U 20019X   23002.62412674  .00003390  00000-0  24650-3 0  9997
2 45381  53.0573 323.3436 0001950  72.6942 287.4260 15.06385081154854
1 45381U 20019X   23003.22125131  .00005323  00000-0  37607-3 0  9997
2 45381  53.0546 320.6648 0001825  57.7971 302.3195 15.06392970154945
1 45381U 20019X   23003.35394431  .00004457  00000-0  31797-3 0  9993
2 45381  53.0551 320.0697 0001688  58.7971 301.3183 15.06391338154962
1 45381U 20019X   23004.54818272  .00013604  00000-0  92986-3 0  9990
2 45381  53.0554 314.7085 0001710  59.5453 300.5704 15.06421750155149
1 45381U 20019X   23004.54818272  .00013604  00000-0  92986-3 0  9990
2 45381  53.0554 314.7085 0001710  59.5453 300.5704 15.06421750155149
1 45381U 20019X   23004.87991401  .00011444  00000-0  78548-3 0  9990
2 45381  53.0555 313.2193 0001714  59.7850 300.3308 15.06420735155196
1 45381U 20019X   23005.27798823  .00009327  00000-0  64375-3 0  9998
2 45381  53.0553 311.4326 0001645  61.0210 299.0943 15.06425803155258
1 45381U 20019X   23005.34433352  .00009809  00000-0  67599-3 0  9995
2 45381  53.0554 311.1346 0001655  60.6466 299.4688 15.06428235155260
1 45381U 20019X   23006.27318161  .00003657  00000-0  26420-3 0  9991
2 45381  53.0553 306.9652 0001782 356.7990   3.2987 15.06411353155405
1 45381U 20019X   23006.53857706 -.00004942  00000-0 -31327-3 0  9995
2 45381  53.0549 305.7739 0001671  68.7769 291.3398 15.06383126155440
1 45381U 20019X   23007.53378469  .00013127  00000-0  89845-3 0  9991
2 45381  53.0549 301.3060 0001371  60.6252 299.4873 15.06402641155591
1 45381U 20019X   23007.53378469  .00013127  00000-0  89845-3 0  9991
2 45381  53.0549 301.3060 0001371  60.6252 299.4873 15.06402641155591
1 45381U 20019X   23008.06456520  .00010399  00000-0  71625-3 0  9990
2 45381  53.0536 298.9229 0001446  64.1113 296.0025 15.06384554155676
1 45381U 20019X   23008.52899575  .00010156  00000-0  69982-3 0  9996
2 45381  53.0552 296.8393 0001471  63.8494 296.2646 15.06395027155745
1 45381U 20019X   23009.19246478  .00008973  00000-0  62047-3 0  9997
2 45381  53.0558 293.8597 0001802  69.4545 290.6638 15.06403477155840
1 45381U 20019X   23010.12131697  .00003429  00000-0  24894-3 0  9997
2 45381  53.0539 289.6906 0001284  61.2342 298.8775 15.06404317155986
1 45381U 20019X   23010.12131697  .00003429  00000-0  24894-3 0  9997
2 45381  53.0539 289.6906 0001284  61.2342 298.8775 15.06404317155986
1 45381U 20019X   23010.78479230 -.00002032  00000-0 -11758-3 0  9993
2 45381  53.0541 286.7130 0001495  67.1635 292.9511 15.06389231156082
1 45381U 20019X   23010.78479230 -.00002032  00000-0 -11758-3 0  9993
2 45381  53.0541 286.7130 0001495  67.1635 292.9511 15.06389231156082
1 45381U 20019X   23011.05017543  .00002611  00000-0  19411-3 0  9994
2 45381  53.0541 285.5210 0001309  72.4862 287.6270 15.06402504156120
1 45381U 20019X   23011.44825055  .00003788  00000-0  27298-3 0  9990
2 45381  53.0548 283.7368 0001637  73.3658 286.7510 15.06412167156187
1 45381U 20019X   23011.77998967  .00002855  00000-0  21049-3 0  9991
2 45381  53.0553 282.2462 0001651  77.4384 282.6790 15.06397455156232
1 45381U 20019X   23012.11172236  .00002416  00000-0  18104-3 0  9994
2 45381  53.0549 280.7560 0001635  75.2257 284.8914 15.06399495156289
1 45381U 20019X   23012.77519722 -.00000226  00000-0  37217-5 0  9997
2 45381  53.0556 277.7776 0001474  78.2831 281.8323 15.06394774156381
1 45381U 20019X   23012.90788872  .00000222  00000-0  33822-4 0  9998
2 45381  53.0557 277.1820 0001498  78.7905 281.3252 15.06397960156408
1 45381U 20019X   23013.43865926 -.00000276  00000-0  35567-6 0  9993
2 45381  53.0560 274.7994 0001655  73.4248 286.6922 15.06403773156484
1 45381U 20019X   23013.43865926 -.00000276  00000-0  35567-6 0  9993
2 45381  53.0560 274.7994 0001655  73.4248 286.6922 15.06403773156484
1 45381U 20019X   23013.90307344  .00002608  00000-0  19386-3 0  9998
2 45381  53.0551 272.7137 0001496  73.4981 286.6172 15.06413891156555
1 45381U 20019X   23014.03578811 -.00000690  00000-0 -27419-4 0  9990
2 45381  53.0552 272.1180 0001588  76.1394 283.9771 15.06388533156579
1 45381U 20019X   23014.43386174  .00000028  00000-0  20757-4 0  9994
2 45381  53.0555 270.3314 0001634  77.3307 282.7865 15.06399302156634
1 45381U 20019X   23014.96462605  .00004589  00000-0  32666-3 0  9993
2 45381  53.0548 267.9492 0001612  74.1252 285.9915 15.06412752156710
1 45381U 20019X   23015.09731768  .00004316  00000-0  30835-3 0  9991
2 45381  53.0543 267.3525 0001651  79.1661 280.9513 15.06414931156730
1 45381U 20019X   23015.82715418 -.00004852  00000-0 -30724-3 0  9990
2 45381  53.0545 264.0802 0001398  77.7283 282.3863 15.06380756156849
1 45381U 20019X   23015.89350166 -.00004276  00000-0 -26845-3 0  9991
2 45381  53.0544 263.7823 0001407  78.0163 282.0984 15.06381869156857
1 45381U 20019X   23015.95984820 -.00003217  00000-0 -19729-3 0  9995
2 45381  53.0541 263.4843 0001390  78.7096 281.4050 15.06383476156860
1 45381U 20019X   23016.95506130 -.00001850  00000-0 -10538-3 0  9990
2 45381  53.0536 259.0128 0001106  89.7991 270.3125 15.06381640157011
1 45381U 20019X   23016.95506130 -.00001850  00000-0 -10538-3 0  9990
2 45381  53.0536 259.0128 0001106  89.7991 270.3125 15.06381640157011
1 45381U 20019X   23017.35314801  .00002021  00000-0  15456-3 0  9990
2 45381  53.0534 257.2245 0001357  91.7275 268.3869 15.06384167157070
1 45381U 20019X   23017.88392791  .00005449  00000-0  38453-3 0  9991
2 45381  53.0527 254.8428 0001163  96.6200 263.4921 15.06389325157150
1 45381U 20019X   23018.34835585  .00006438  00000-0  45073-3 0  9991
2 45381  53.0520 252.7575 0001226 100.4144 259.6983 15.06399150157224
1 45381U 20019X   23018.34835585  .00006438  00000-0  45073-3 0  9991
2 45381  53.0520 252.7575 0001226 100.4144 259.6983 15.06399150157224
1 45381U 20019X   23018.87912729  .00007112  00000-0  49571-3 0  9992
2 45381  53.0512 250.3755 0001324 100.7626 259.3512 15.06409364157309
1 45381U 20019X   23019.07816396  .00010602  00000-0  72918-3 0  9997
2 45381  53.0512 249.4816 0001272 102.4663 257.6468 15.06419513157339
1 45381U 20019X   23019.34355425  .00003350  00000-0  24365-3 0  9993
2 45381  53.0515 248.2901 0001348  93.7648 266.3495 15.06405540157379
1 45381U 20019X   23019.60894514  .00002619  00000-0  19468-3 0  9994
2 45381  53.0503 247.0999 0001993  86.6513 273.4703 15.06402450157411
1 45381U 20019X   23019.67529199 -.00002003  00000-0 -11562-3 0  9991
2 45381  53.0497 246.8017 0001129  91.5032 268.6086 15.06391989157428
1 45381U 20019X   23020.33876134  .00001689  00000-0  13227-3 0  9997
2 45381  53.0505 243.8217 0001289  90.9229 269.1907 15.06397683157521
1 45381U 20019X   23020.86953629  .00004495  00000-0  32045-3 0  9997
2 45381  53.0504 241.4388 0001257  93.9209 266.1924 15.06402018157603
1 45381U 20019X   23022.59455272  .00003253  00000-0  23715-3 0  9995
2 45381  53.0523 233.6945 0000970  94.0603 266.0497 15.06403959157864
1 45381U 20019X   23022.99263586 -.00000598  00000-0 -21287-4 0  9998
2 45381  53.0509 231.9078 0001110  74.3106 285.8005 15.06399218157925
1 45381U 20019X   23024.51861317  .00002304  00000-0  17351-3 0  9995
2 45381  53.0509 225.0566 0001186  78.6169 281.4953 15.06399022158153
1 45381U 20019X   23025.51381748  .00001554  00000-0  12323-3 0  9991
2 45381  53.0503 220.5875 0001289  90.7944 269.3193 15.06395042158306
1 45381U 20019X   23025.51381748  .00001554  00000-0  12323-3 0  9991
2 45381  53.0503 220.5875 0001289  90.7944 269.3193 15.06395042158306
1 45381U 20019X   23025.71285662  .00000705  00000-0  66222-4 0  9996
2 45381  53.0513 219.6942 0001293  91.7104 268.4033 15.06401282158335
1 45381U 20019X   23026.57536774  .00000906  00000-0  79696-4 0  9996
2 45381  53.0516 215.8226 0001219  87.4140 272.6988 15.06396629158469
1 45381U 20019X   23026.57536774  .00000906  00000-0  79696-4 0  9996
2 45381  53.0516 215.8226 0001219  87.4140 272.6988 15.06396629158469
1 45381U 20019X   23027.50422260  .00000691  00000-0  65264-4 0  9991
2 45381  53.0522 211.6530 0001258  85.5298 274.5835 15.06397586158605
1 45381U 20019X   23027.76960876  .00000809  00000-0  73228-4 0  9999
2 45381  53.0525 210.4620 0001281  83.8401 276.2734 15.06399298158641
1 45381U 20019X   23027.76960876  .00000809  00000-0  73228-4 0  9999
2 45381  53.0525 210.4620 0001281  83.8401 276.2734 15.06399298158641
1 45381U 20019X   23028.49942454  .00000674  00000-0  64107-4 0  9998
2 45381  53.0525 207.1856 0001283  84.1544 275.9592 15.06397191158759
1 45381U 20019X   23028.89750185  .00000826  00000-0  74310-4 0  9996
2 45381  53.0524 205.3976 0001249  88.4479 271.6653 15.06401332158818
1 45381U 20019X   23028.89750185  .00000826  00000-0  74310-4 0  9996
2 45381  53.0524 205.3976 0001249  88.4479 271.6653 15.06401332158818
1 45381U 20019X   23029.49462904 -.00000045  00000-0  15888-4 0  9991
2 45381  53.0519 202.7162 0001264  90.9103 269.2031 15.06395030158909
1 45381U 20019X   23029.89270902  .00000016  00000-0  19978-4 0  9991
2 45381  53.0522 200.9292 0001252  90.5603 269.5529 15.06396660158966
1 45381U 20019X   23030.42348610  .00000085  00000-0  24599-4 0  9995
2 45381  53.0522 198.5461 0001242  90.2650 269.8482 15.06394032159046
1 45381U 20019X   23031.15330810 -.00000375  00000-0 -63126-5 0  9993
2 45381  53.0526 195.2695 0001155  91.0722 269.0399 15.06388966159155
1 45381U 20019X   23031.48504770 -.00000829  00000-0 -36815-4 0  9995
2 45381  53.0526 193.7804 0001135  97.2303 262.8815 15.06385113159202
